COMMENT,ORIGINATOR,NORAD_CAT_ID,OBJECT_NAME,OBJECT_TYPE,CLASSIFICATION_TYPE,INTLDES,EPOCH,EPOCH_MICROSECONDS,MEAN_MOTION,ECCENTRICITY,INCLINATION,RA_OF_ASC_NODE,ARG_OF_PERICENTER,MEAN_ANOMALY,EPHEMERIS_TYPE,ELEMENT_SET_NO,REV_AT_EPOCH,BSTAR,MEAN_MOTION_DOT,MEAN_MOTION_DDOT,FILE,TLE_LINE0,TLE_LINE1,TLE_LINE2,OBJECT_ID,OBJECT_NUMBER,SEMIMAJOR_AXIS,PERIOD,APOGEE,PERIGEE
"GENERATED VIA SPACETRACK.ORG API","JSPOC","21103","COSMOS 2128","PAYLOAD","U","91009D","2016-01-13 20:40:42","665088","12.51869907","0.0014076","74.032","295.2803","59.2352","301.0084","0","999","13876","0.00012481","4e-08","0","1980270","0 COSMOS 2128","1 21103U 91009D   16013.86160492 +.00000004 +00000-0 +12481-3 0  9996","2 21103 074.0320 295.2803 0014076 059.2352 301.0084 12.51869907138767","1991-009D","21103","7834.820","115.027","1467.713","1445.657"
"GENERATED VIA SPACETRACK.ORG API","JSPOC","3890","NIMBUS 3","PAYLOAD","U","69037A","2016-01-13 20:40:46","102944","13.42497437","0.0038871","99.9678","285.9052","233.4628","168.8481","0","999","28988","5.8162e-05","-1.2e-07","0","1980270","0 NIMBUS 3","1  3890U 69037A   16013.86164471 -.00000012 +00000-0 +58162-4 0  9993","2  3890 099.9678 285.9052 0038871 233.4628 168.8481 13.42497437289881","1969-037A","3890","7478.127","107.262","1129.060","1070.924"
"GENERATED VIA SPACETRACK.ORG API","JSPOC","3307","EXPLORER 38 (RAE-A)","PAYLOAD","U","68055A","2016-01-13 20:41:03","785568","6.42570641","0.0007819","120.8666","325.3458","28.2746","331.828","0","999","11490","0","-1e-07","0","1979932","0 EXPLORER 38 (RAE-A)","1 03307U 68055A   16013.86184937 -.00000010  00000-0  00000+0 0  9995","2 03307 120.8666 325.3458 0007819  28.2746 331.8280  6.42570641114903","1968-055A","3307","12221.408","224.099","5852.829","5833.717"
"GENERATED VIA SPACETRACK.ORG API","JSPOC","18121","SL-8 R/B","ROCKET BODY","U","87051J","2016-01-13 20:41:04","349760","12.22520697","0.0131738","74.0095","310.281","157.8716","231.1335","0","999","27527","0.00018251","6e-08","0","1980270","0 SL-8 R/B","1 18121U 87051J   16013.86185590 +.00000006 +00000-0 +18251-3 0  9993","2 18121 074.0095 310.2810 0131738 157.8716 231.1335 12.22520697275270","1987-051J","18121","7959.718","117.789","1686.442","1476.723"
"GENERATED VIA SPACETRACK.ORG API","JSPOC","41191","EXPRESS AMU1","PAYLOAD","U","15082A","2016-01-13 20:41:13","932384","1.00270532","2.8e-05","0.0707","273.9663","269.4357","309.903","0","999","33","0","-4.4e-07","0","1980270","0 EXPRESS AMU1","1 41191U 15082A   16013.86196681 -.00000044 +00000-0 +00000-0 0  9997","2 41191 000.0707 273.9663 0000280 269.4357 309.9030 01.00270532000334","2015-082A","41191","42165.083","1436.114","35788.128","35785.767"
"GENERATED VIA SPACETRACK.ORG API","JSPOC","11085","RADIO 1","PAYLOAD","U","78100B","2016-01-13 20:41:23","134848","11.96542036","0.0013296","82.5461","39.5803","30.4753","85.2061","0","999","62546","-4.4511e-05","5e-08","0","1980270","0 RADIO 1","1 11085U 78100B   16013.86207332 +.00000005 +00000-0 -44511-4 0  9998","2 11085 082.5461 039.5803 0013296 030.4753 085.2061 11.96542036625466","1978-100B","11085","8074.516","120.346","1707.117","1685.645"
"GENERATED VIA SPACETRACK.ORG API","JSPOC","10365","EKRAN 2","PAYLOAD","U","77092A","2016-01-13 20:41:27","91968","1.00218172","0.0038849","12.5266","322.9771","264.6005","265.4979","0","999","9667","0","-4.3e-07","0","1980270","0 EKRAN 2","1 10365U 77092A   16013.86211912 -.00000043 +00000-0 +00000-0 0  9999","2 10365 012.5266 322.9771 0038849 264.6005 265.4979 01.00218172096677","1977-092A","10365","42179.768","1436.865","35965.497","35637.769"
"GENERATED VIA SPACETRACK.ORG API","JSPOC","25758","IRS P4 (OCEANSAT 1)","PAYLOAD","U","99029C","2016-01-13 20:41:27","496320","14.52213019","0.0004395","98.1992","99.5824","76.68","60.4386","0","999","88121","5.4963e-05","1.79e-06","0","1980270","0 IRS P4 (OCEANSAT 1)","1 25758U 99029C   16013.86212380 +.00000179 +00000-0 +54963-4 0  9995","2 25758 098.1992 099.5824 0004395 076.6800 060.4386 14.52213019881217","1999-029C","25758","7096.566","99.159","721.550","715.312"
"GENERATED VIA SPACETRACK.ORG API","JSPOC","10365","EKRAN 2","PAYLOAD","U","77092A","2016-01-13 20:41:27","91968","1.00218172","0.0038849","12.5266","322.9771","264.6005","265.4979","0","999","9677","0","-4.2e-07","0","1980282","0 EKRAN 2","1 10365U 77092A   16013.86211912 -.00000042  00000-0  00000+0 0  9997","2 10365  12.5266 322.9771 0038849 264.6005 265.4979  1.00218172 96778","1977-092A","10365","42179.768","1436.865","35965.497","35637.769"
"GENERATED VIA SPACETRACK.ORG API","JSPOC","25113","ORBCOMM FM 10","PAYLOAD","U","97084B","2016-01-13 20:41:30","64128","14.38157668","0.000684","45.0167","176.329","179.493","180.5927","0","999","12038","0.00014354","2.97e-06","0","1980270","0 ORBCOMM FM 10","1 25113U 97084B   16013.86215352 +.00000297 +00000-0 +14354-3 0  9991","2 25113 045.0167 176.3290 0006840 179.4930 180.5927 14.38157668120381","1997-084B","25113","7142.729","100.128","769.479","759.708"
"GENERATED VIA SPACETRACK.ORG API","JSPOC","28981","ST5-B","PAYLOAD","U","06008B","2016-01-13 20:41:47","122944","11.98566919","0.1760911","105.4898","324.0494","252.8396","87.3102","0","999","39550","0.0005126","0.00022056","3.2725e-06","1980105","0 ST5-B","1 28981U 06008B   16013.86235096  .00022056  32725-5  51260-3 0  9998","2 28981 105.4898 324.0494 1760911 252.8396  87.3102 11.98566919395509","2006-008B","28981","8065.419","120.143","3107.533","267.036"
"GENERATED VIA SPACETRACK.ORG API","JSPOC","28981","ST5-B","PAYLOAD","U","06008B","2016-01-13 20:41:47","122944","11.98566919","0.1760911","105.4898","324.0494","252.8396","87.3102","0","999","39546","0.0005126","0.00022056","0","1980270","0 ST5-B","1 28981U 06008B   16013.86235096 +.00022056 +32725-5 +51260-3 0  9998","2 28981 105.4898 324.0494 1760911 252.8396 087.3102 11.98566919395464","2006-008B","28981","8065.419","120.143","3107.533","267.036"
"GENERATED VIA SPACETRACK.ORG API","JSPOC","8896","COSMOS 832","PAYLOAD","U","76054H","2016-01-13 20:42:01","168992","12.4127481","0.0024155","74.0004","262.3339","150.6361","339.2306","0","999","79344","0.00010853","-1e-08","0","1980270","0 COSMOS 832","1  8896U 76054H   16013.86251353 -.00000001 +00000-0 +10853-3 0  9999","2  8896 074.0004 262.3339 0024155 150.6361 339.2306 12.41274810793448","1976-054H","8896","7879.340","116.009","1520.238","1482.173"
"GENERATED VIA SPACETRACK.ORG API","JSPOC","38357","BLOCK DM-SL R/B","ROCKET BODY","U","12030B","2016-01-13 20:42:04","720896","2.25330282","0.7102912","0.7559","32.0961","65.0477","341.3265","0","999","2979","-0.0002859","-1.32e-06","0","1979919","0 BLOCK DM-SL R/B","1 38357U 12030B   16013.86255464 -.00000132  00000-0 -28590-3 0  9998","2 38357   0.7559  32.0961 7102912  65.0477 341.3265  2.25330282 29794","2012-030B","38357","24576.618","639.061","35655.039","741.927"
"GENERATED VIA SPACETRACK.ORG API","JSPOC","10531","COSMOS 970","PAYLOAD","U","77121A","2016-01-13 20:42:04","528224","13.59773697","0.0152842","65.8544","322.5185","239.9444","153.9745","0","999","28177","3.0506e-05","-5.3e-07","0","1980270","0 COSMOS 970","1 10531U 77121A   16013.86255241 -.00000053 +00000-0 +30506-4 0  9999","2 10531 065.8544 322.5185 0152842 239.9444 153.9745 13.59773697281773","1977-121A","10531","7414.651","105.899","1149.843","923.189"
"GENERATED VIA SPACETRACK.ORG API","JSPOC","6850","COSMOS 593","PAYLOAD","U","73069F","2016-01-13 20:42:09","66816","12.59660179","0.0078587","74.0017","298.9138","286.7086","104.145","0","999","94415","-2.1947e-05","-2.1e-07","0","1980270","0 COSMOS 593","1  6850U 73069F   16013.86260494 -.00000021 +00000-0 -21947-4 0  9996","2  6850 074.0017 298.9138 0078587 286.7086 104.1450 12.59660179944156","1973-069F","6850","7802.484","114.316","1485.666","1363.031"
"GENERATED VIA SPACETRACK.ORG API","JSPOC","12363","ATLAS CENTAUR R/B","ROCKET BODY","U","81018B","2016-01-13 20:42:16","733952","2.21978107","0.7183102","20.1772","217.1616","211.1521","348.1667","0","999","28279","-0.00055567","-6.3e-07","0","1979885","0 ATLAS CENTAUR R/B","1 12363U 81018B   16013.86269368 -.00000063  00000-0 -55567-3 0  9994","2 12363  20.1772 217.1616 7183102 211.1521 348.1667  2.21978107282795","1981-018B","12363","24823.427","648.712","36276.213","614.371"
"GENERATED VIA SPACETRACK.ORG API","JSPOC","19852","SL-14 R/B","ROCKET BODY","U","89018B","2016-01-13 20:42:16","606080","13.84030974","0.0018768","82.5219","347.3292","84.3352","291.3784","0","999","35757","7.1562e-06","2.3e-07","0","1979911","0 SL-14 R/B","1 19852U 89018B   16013.86269220  .00000023  00000-0  71562-5 0  9998","2 19852  82.5219 347.3292 0018768  84.3352 291.3784 13.84030974357579","1989-018B","19852","7327.761","104.043","963.378","935.873"
"GENERATED VIA SPACETRACK.ORG API","JSPOC","11327","SL-8 R/B","ROCKET BODY","U","79030B","2016-01-13 20:42:24","133248","13.76974604","0.0027195","82.9515","322.1995","193.5681","193.7411","0","999","84732","2.3077e-05","3.8e-07","0","1980270","0 SL-8 R/B","1 11327U 79030B   16013.86277932 +.00000038 +00000-0 +23077-4 0  9992","2 11327 082.9515 322.1995 0027195 193.5681 193.7411 13.76974604847321","1979-030B","11327","7352.774","104.577","994.634","954.643"
"GENERATED VIA SPACETRACK.ORG API","JSPOC","1361","LCS 1","PAYLOAD","U","65034C","2016-01-13 20:42:30","154464","9.89289317","0.0007338","32.1365","216.8523","355.093","4.9495","0","999","83283","-0.00097119","1e-08","0","1980270","0 LCS 1","1  1361U 65034C   16013.86284901 +.00000001 +00000-0 -97119-3 0  9990","2  1361 032.1365 216.8523 0007338 355.0930 004.9495 09.89289317832837","1965-034C","1361","9166.135","145.559","2794.727","2781.274"
